STARLINK-36826          
1 67885U 26035G   26170.79375189  .00018563  00000+0  57582-3 0  9997
2 67885  97.2840 103.9232 0001608  90.4863 269.6564 15.33448963 19634
STARLINK-36390          
1 67886U 26035H   26170.80192861  .00036596  00000+0  11309-2 0  9996
2 67886  97.2840 103.9138 0001440  88.9078 271.2330 15.33431476 19635
STARLINK-36368          
1 67887U 26035J   26170.77199974  .00032125  00000+0  99263-3 0  9995
2 67887  97.2837 103.9570 0001784  90.2361 269.9086 15.33462232 19630
STARLINK-36801          
1 67888U 26035K   26170.77471824  .00025933  00000+0  80235-3 0  9991
2 67888  97.2839 103.9534 0002390 103.6426 256.5083 15.33462890 19637
STARLINK-36372          
1 67889U 26035L   26170.78015714  .00030617  00000+0  94647-3 0  9992
2 67889  97.2840 103.9455 0001568  99.5913 260.5507 15.33457805 19638
STARLINK-36363          
1 67890U 26035M   26170.79647046  .00009003  00000+0  28082-3 0  9999
2 67890  97.2836 103.9211 0001816  78.8749 281.2698 15.33449234 19636
STARLINK-36816          
1 67891U 26035N   26170.74605533  .00027044  00000+0  83641-3 0  9997
2 67891  97.2835 102.9282 0001971 104.8306 255.3155 15.33467430 19564
STARLINK-36813          
1 67892U 26035P   26170.74752894  .00024097  00000+0  74604-3 0  9995
2 67892  97.2833 103.9899 0001307  92.0507 268.0885 15.33457844 19639
STARLINK-36803          
1 67893U 26035Q   26170.75568563  .00017654  00000+0  54758-3 0  9994
2 67893  97.2843 103.9733 0001669 102.9706 257.1723 15.33462098 19638
STARLINK-36846          
1 67894U 26035R   26170.79918857  .00028837  00000+0  89181-3 0  9997
2 67894  97.2837 103.9198 0001735  92.3470 267.7972 15.33456934 19636
STARLINK-36866          
1 67895U 26035S   26170.78831403  .00032205  00000+0  99511-3 0  9990
2 67895  97.2833 103.9343 0001929  94.6760 265.4703 15.33461084 19636
STARLINK-36877          
1 67896U 26035T   26170.76112188  .00012780  00000+0  39725-3 0  9998
2 67896  97.2828 103.9712 0002293 103.0401 257.1098 15.33463819 19636
STARLINK-36870          
1 67897U 26035U   26170.76656317  .00023163  00000+0  71719-3 0  9992
2 67897  97.2832 103.9658 0002249 105.0725 255.0767 15.33461366 19638
STARLINK-36810          
1 67898U 26035V   26170.77744685  .00021669  00000+0  67171-3 0  9996
2 67898  97.2821 103.9510 0003831   0.7423 359.3825 15.33433881 19632
STARLINK-36878          
1 67899U 26035W   26170.75023498  .00010426  00000+0  32455-3 0  9993
2 67899  97.2832 103.9839 0002523  83.6929 276.4601 15.33470598 19634
STARLINK-36361          
1 67900U 26035X   26170.75296340  .00020352  00000+0  63122-3 0  9998
2 67900  97.2836 103.9817 0001466  87.3728 272.7683 15.33434788 19630
STARLINK-36336          
1 67901U 26035Y   26170.76928570  .00018912  00000+0  58643-3 0  9998
2 67901  97.2846 103.9599 0002363  94.9942 265.1571 15.33455437 19634
STARLINK-36876          
1 67902U 26035Z   26170.75840448  .00022342  00000+0  69210-3 0  9999
2 67902  97.2845 103.9755 0001571 102.9302 257.2116 15.33454888 19634
STARLINK-36257          
1 67903U 26035AA  26170.79103285  .00020697  00000+0  64152-3 0  9996
2 67903  97.2832 103.9308 0001583  91.3747 268.7677 15.33451365 19638
STARLINK-36814          
1 67904U 26036A   26170.01397779  .00012306  00000+0  45590-3 0  9999
2 67904  43.0059  33.4714 0002609 259.8860 100.1697 15.27584406 19215
STARLINK-36729          
1 67905U 26036B   26170.33833720  .00014998  00000+0  55341-3 0  9990
2 67905  43.0059  31.5904 0002434 271.3654  88.6919 15.27580854 19267
STARLINK-36763          
1 67906U 26036C   26170.33448070  .00014108  00000+0  52106-3 0  9990
2 67906  43.0059  31.5575 0002372 269.6837  90.3743 15.27588230 19267
STARLINK-36742          
1 67907U 26036D   26170.33063281  .00018877  00000+0  69363-3 0  9998
2 67907  43.0029  31.5289 0000908 287.1996  72.8756 15.27584626 19265
STARLINK-36827          
1 67908U 26036E   26170.91524664  .00014543  00000+0  53680-3 0  9991
2 67908  43.0052  28.1676 0001147 273.4140  86.6580 15.27591093 19353
STARLINK-36822          
1 67909U 26036F   26170.32291164  .00014431  00000+0  53267-3 0  9990
2 67909  43.0044  31.4695 0002616 268.5926  91.4626 15.27593266 19261
STARLINK-36847          
1 67910U 26036G   26170.90753015  .00006467  00000+0  24429-3 0  9992
2 67910  43.0034  28.1111 0000981 265.5766  94.4973 15.27583096 19358
STARLINK-36736          
1 67911U 26036H   26170.31265064  .00019743  00000+0  72506-3 0  9990
2 67911  43.0038  31.3751 0001178 267.2831  92.7886 15.27578866 19263
STARLINK-36676          
1 67912U 26036J   26170.89725955  .00012782  00000+0  47276-3 0  9996
2 67912  43.0002  28.0264 0001011 299.3196  60.7554 15.27611873 19356
STARLINK-36690          
1 67913U 26036K   26170.30491436  .00007289  00000+0  27406-3 0  9996
2 67913  43.0038  31.3149 0000887 258.5503 101.5249 15.27590507 19269
STARLINK-36724          
1 67914U 26036L   26170.94851223  .00014879  00000+0  54894-3 0  9995
2 67914  43.0002  27.5463 0001311 271.1704  88.8998 15.27590171 19360
