OBJECT_NAME,OBJECT_ID,EPOCH,MEAN_MOTION,ECCENTRICITY,INCLINATION,RA_OF_ASC_NODE,ARG_OF_PERICENTER,MEAN_ANOMALY,EPHEMERIS_TYPE,CLASSIFICATION_TYPE,NORAD_CAT_ID,ELEMENT_SET_NO,REV_AT_EPOCH,BSTAR,MEAN_MOTION_DOT,MEAN_MOTION_DDOT
STARLINK-36826,2026-035G,2026-06-19T19:03:00.163296,15.33448963,.00016081,97.2840,103.9232,90.4863,269.6564,0,U,67885,999,1963,.57581891E-3,.18563E-3,0
STARLINK-36390,2026-035H,2026-06-19T19:14:46.631904,15.33431476,.000144,97.2840,103.9138,88.9078,271.2330,0,U,67886,999,1963,.11308894E-2,.36596E-3,0
STARLINK-36368,2026-035J,2026-06-19T18:31:40.777536,15.33462232,.00017842,97.2837,103.9570,90.2361,269.9086,0,U,67887,999,1963,.99263109E-3,.32125E-3,0
STARLINK-36801,2026-035K,2026-06-19T18:35:35.655936,15.33462890,.00023904,97.2839,103.9534,103.6426,256.5083,0,U,67888,999,1963,.80235487E-3,.25933E-3,0
STARLINK-36372,2026-035L,2026-06-19T18:43:25.576896,15.33457805,.00015683,97.2840,103.9455,99.5913,260.5507,0,U,67889,999,1963,.9464659E-3,.30617E-3,0
STARLINK-36363,2026-035M,2026-06-19T19:06:55.047744,15.33449234,.00018166,97.2836,103.9211,78.8749,281.2698,0,U,67890,999,1963,.28082096E-3,.9003E-4,0
STARLINK-36816,2026-035N,2026-06-19T17:54:19.180512,15.33467430,.00019716,97.2835,102.9282,104.8306,255.3155,0,U,67891,999,1956,.83640825E-3,.27044E-3,0
STARLINK-36813,2026-035P,2026-06-19T17:56:26.500416,15.33457844,.0001307,97.2833,103.9899,92.0507,268.0885,0,U,67892,999,1963,.74603683E-3,.24097E-3,0
STARLINK-36803,2026-035Q,2026-06-19T18:08:11.238432,15.33462098,.00016692,97.2843,103.9733,102.9706,257.1723,0,U,67893,999,1963,.54758349E-3,.17654E-3,0
STARLINK-36846,2026-035R,2026-06-19T19:10:49.892448,15.33456934,.00017357,97.2837,103.9198,92.3470,267.7972,0,U,67894,999,1963,.89180757E-3,.28837E-3,0
STARLINK-36866,2026-035S,2026-06-19T18:55:10.332192,15.33461084,.00019299,97.2833,103.9343,94.6760,265.4703,0,U,67895,999,1963,.99511202E-3,.32205E-3,0
STARLINK-36877,2026-035T,2026-06-19T18:16:00.930432,15.33463819,.00022939,97.2828,103.9712,103.0401,257.1098,0,U,67896,999,1963,.39725417E-3,.1278E-3,0
STARLINK-36870,2026-035U,2026-06-19T18:23:51.057888,15.33461366,.00022493,97.2832,103.9658,105.0725,255.0767,0,U,67897,999,1963,.71719384E-3,.23163E-3,0
STARLINK-36810,2026-035V,2026-06-19T18:39:31.407840,15.33433881,.00038311,97.2821,103.9510,0.7423,359.3825,0,U,67898,999,1963,.67170752E-3,.21669E-3,0
STARLINK-36878,2026-035W,2026-06-19T18:00:20.302272,15.33470598,.00025238,97.2832,103.9839,83.6929,276.4601,0,U,67899,999,1963,.32454572E-3,.10426E-3,0
STARLINK-36361,2026-035X,2026-06-19T18:04:16.037760,15.33434788,.00014663,97.2836,103.9817,87.3728,272.7683,0,U,67900,999,1963,.63121878E-3,.20352E-3,0
STARLINK-36336,2026-035Y,2026-06-19T18:27:46.284480,15.33455437,.00023635,97.2846,103.9599,94.9942,265.1571,0,U,67901,999,1963,.5864341E-3,.18912E-3,0
STARLINK-36876,2026-035Z,2026-06-19T18:12:06.147072,15.33454888,.00015711,97.2845,103.9755,102.9302,257.2116,0,U,67902,999,1963,.69209759E-3,.22342E-3,0
STARLINK-36257,2026-035AA,2026-06-19T18:59:05.238240,15.33451365,.0001583,97.2832,103.9308,91.3747,268.7677,0,U,67903,999,1963,.64151686E-3,.20697E-3,0
STARLINK-36814,2026-036A,2026-06-19T00:20:07.681056,15.27584406,.00026098,43.0059,33.4714,259.8860,100.1697,0,U,67904,999,1921,.45589995E-3,.12306E-3,0
STARLINK-36729,2026-036B,2026-06-19T08:07:12.334080,15.27580854,.00024346,43.0059,31.5904,271.3654,88.6919,0,U,67905,999,1926,.55341185E-3,.14998E-3,0
STARLINK-36763,2026-036C,2026-06-19T08:01:39.132480,15.27588230,.0002372,43.0059,31.5575,269.6837,90.3743,0,U,67906,999,1926,.52105973E-3,.14108E-3,0
STARLINK-36742,2026-036D,2026-06-19T07:56:06.674784,15.27584626,.00009081,43.0029,31.5289,287.1996,72.8756,0,U,67907,999,1926,.69363446E-3,.18877E-3,0
STARLINK-36827,2026-036E,2026-06-19T21:57:57.309696,15.27591093,.00011473,43.0052,28.1676,273.4140,86.6580,0,U,67908,999,1935,.53680172E-3,.14543E-3,0
STARLINK-36822,2026-036F,2026-06-19T07:44:59.565696,15.27593266,.0002616,43.0044,31.4695,268.5926,91.4626,0,U,67909,999,1926,.53266521E-3,.14431E-3,0
STARLINK-36847,2026-036G,2026-06-19T21:46:50.604960,15.27583096,.0000981,43.0034,28.1111,265.5766,94.4973,0,U,67910,999,1935,.24428695E-3,.6467E-4,0
STARLINK-36736,2026-036H,2026-06-19T07:30:13.015296,15.27578866,.00011788,43.0038,31.3751,267.2831,92.7886,0,U,67911,999,1926,.72506488E-3,.19743E-3,0
STARLINK-36676,2026-036J,2026-06-19T21:32:03.225120,15.27611873,.00010119,43.0002,28.0264,299.3196,60.7554,0,U,67912,999,1935,.47276367E-3,.12782E-3,0
STARLINK-36690,2026-036K,2026-06-19T07:19:04.600704,15.27590507,.00008878,43.0038,31.3149,258.5503,101.5249,0,U,67913,999,1926,.27406444E-3,.7289E-4,0
STARLINK-36724,2026-036L,2026-06-19T22:45:51.456672,15.27590171,.00013113,43.0002,27.5463,271.1704,88.8998,0,U,67914,999,1936,.54894476E-3,.14879E-3,0
